#aV2009  4 27  0  0   .00000000      96 DD+AD WGS84 FIT  NGA
## 1529  86400.00000000   900.00000000 54948  .0000000000000
+   31     2  3  4  5  6  7  8  9 10 11 12 13 14 15 16 17 18
+         19 20 21 22 23 24 25 26 27 28 29 30 31 32  0  0  0
+          0  0  0  0  0  0  0  0  0  0  0  0  0  0  0  0  0
+          0  0  0  0  0  0  0  0  0  0  0  0  0  0  0  0  0
+          0  0  0  0  0  0  0  0  0  0  0  0  0  0  0  0  0
++         0  0  0  0  0  0  0  0  0  0  0  0  0  0  0  0  0
++         0  0  0  0  0  0  0  0  0  0  0  0  0  0  0  0  0
++         0  0  0  0  0  0  0  0  0  0  0  0  0  0  0  0  0
++         0  0  0  0  0  0  0  0  0  0  0  0  0  0  0  0  0
++         0  0  0  0  0  0  0  0  0  0  0  0  0  0  0  0  0
%c cc cc ccc ccc cccc cccc cccc cccc ccccc ccccc ccccc ccccc
%c cc cc ccc ccc cccc cccc cccc cccc ccccc ccccc ccccc ccccc
%f  0.0000000  0.000000000  0.00000000000  0.000000000000000
%f  0.0000000  0.000000000  0.00000000000  0.000000000000000
%i    0    0    0    0      0      0      0      0         0
%i    0    0    0    0      0      0      0      0         0
/*      NGA, ST. LOUIS,MO.                                  
/*   EPHEMERIS COMPUTED FROM  3 DAYS OF DATA                
/* CCCCCCCCCCCCCCCCCCCCCCCCCCCCCCCCCCCCCCCCCCCCCCCCCCCCCCCCC
/* CCCCCCCCCCCCCCCCCCCCCCCCCCCCCCCCCCCCCCCCCCCCCCCCCCCCCCCCC
*  2009  4 27 23 15   .00000000                                                 
P  2  -4665.065377  14867.428199  21396.889860    153.647419                    
V  2 -26528.806363  -7229.919695  -1164.115185       .002202                    
P  3   5640.048252 -22487.529919 -12942.184126    385.429534                    
V  3  12710.292554 -10526.343882  24765.578223       .051856                    
P  4 -18212.544524   8175.100629  17561.408568    -68.801827                    
V  4 -21160.340906  -7811.151496 -17808.304391      -.151570                    
P  5  14690.701318  19852.104598   9631.387197    -51.795739                    
V  5   1609.345818  12882.481629 -28006.273169      -.165909                    
P  6  11476.076493 -22124.984709  -8910.936283     99.473013                    
V  6  10423.209517  -6220.788187  28306.565299       .163982                    
P  7 -25770.409646  -6661.128121   -603.463710     19.740320                    
V  7    -45.008857  -2620.999466  31811.231742      -.005742                    
P  8 -23274.055431   1282.534109 -13241.431250   -200.459338                    
V  8 -15226.198523  -6446.183511  25757.279063      -.017132                    
P  9  16421.810367  14715.195812 -15529.056454     52.988967                    
V  9 -18312.918712  -2914.581513 -23012.175287       .019154                    
P 10    869.586575  25357.120083   7075.417016    -15.118916                    
V 10  -5088.128781  -8344.006072  30173.605383      -.007789                    
P 11 -18925.031775 -12600.198588 -14201.552502      -.478163                    
V 11  17956.276085  -2346.384868 -21808.665343      -.015890                    
P 12  12249.901138  21724.725137   9379.868958   -288.638075                    
V 12    710.805890  11959.879598 -28735.026721       .049681                    
P 13 -18655.734036    181.105932  18774.153232    295.658233                    
V 13  17403.384991 -16600.165005  17338.902447       .010178                    
P 14  21282.774574 -14884.342119  -5146.302586   -119.241692                    
V 14  -3586.983091   5988.690135 -31542.081072       .058164                    
P 15    -39.981739  18825.033741 -18689.167754   -285.878811                    
V 15 -17812.835642  15881.576967  16073.839109      -.040909                    
P 16   2663.951825 -23597.589064  11705.922522     55.816130                    
V 16   5728.099618  13896.862239  27083.140825      -.032104                    
P 17 -21467.646745  13826.052319  -6873.426869     56.250152                    
V 17   4421.273590  -8207.095473 -30209.996711       .017550                    
P 18  16172.667405   3548.066461 -20614.678726    -61.785430                    
V 18   5226.191045  26166.010537   8144.321220       .033443                    
P 19  -1294.173045 -17343.878690 -19936.705276     27.212925                    
V 19  20274.059660 -15594.294429  12451.958713      -.010063                    
P 20 -13795.345852 -19992.211530  10663.760893     84.153042                    
V 20   -950.829098 -14035.063150 -27169.720098      -.010475                    
P 21  26151.942129   4611.075136  -4040.289991     16.965855                    
V 21   4274.428778   4460.473642  30210.649863      -.020374                    
P 22  13490.719949  -9190.606506 -20786.588064    200.820845                    
V 22   6673.713619  26008.273067  -7183.522147      -.006388                    
P 23 -11198.340653  -9994.445037  21867.290288    389.705133                    
V 23  19952.273104 -19432.509170   1061.736527       .002277                    
P 24  21161.639022  13406.451731   8553.771704    184.580266                    
V 24 -11183.351595   -480.511422  29122.281332       .029108                    
P 25 -23641.212104  -9428.655818   7569.348429    382.981089                    
V 25   9480.228411   -851.908174  30112.228891       .205586                    
P 26   5922.670069  14101.350682 -22203.832897     58.735844                    
V 26 -20457.967827  17417.124767   6261.653354       .015986                    
P 27   5626.934551  15301.377955 -20309.689472     44.445168                    
V 27 -26860.428477  -4768.930518 -10732.269190       .031367                    
P 28 -13781.892886   6108.659305 -21414.512677    -24.340266                    
V 28  -6768.556110 -27414.152483  -3703.845404      -.003745                    
P 29  18149.189089   1621.855497  19418.875674     14.309379                    
V 29 -16935.108637  17673.399662  14469.590546       .040081                    
P 30  16269.208090  12108.865255  16829.639270    142.279334                    
V 30   4578.603870  21678.799586 -19518.435811       .027510                    
P 31  15822.632794  -9393.881096  19414.308393    -58.861195                    
V 31  23002.127183   7350.516288 -15217.305849      -.009860                    
P 32  -7583.659344 -25245.268722   4605.509155    268.989065                    
V 32   1463.678562  -5639.562002 -30964.390098      -.050500                    
EOF
